<?xml version="1.0" encoding="UTF-8"?>
<gpx xmlns="http://www.topografix.com/GPX/1/1" xmlns:xsi="http://www.w3.org/2001/XMLSchema-instance" version="1.1" creator="phpGPX/1.3.0" xsi:schemaLocation="http://www.topografix.com/GPX/1/1 http://www.topografix.com/GPX/1/1/gpx.xsd">
  <trk>
    <name>Pistol Jogja Darderdor</name>
    <trkseg>
      <trkpt lat="-7.78299" lon="110.371471">
        <ele>120.85795</ele>
        <time>2026-07-18T12:08:37+00:00</time>
      </trkpt>
      <trkpt lat="-7.783069" lon="110.37146">
        <ele>120.85795</ele>
        <time>2026-07-18T12:08:40+00:00</time>
      </trkpt>
      <trkpt lat="-7.783698" lon="110.37136">
        <ele>120.85795</ele>
        <time>2026-07-18T12:09:04+00:00</time>
      </trkpt>
      <trkpt lat="-7.783796" lon="110.371343">
        <ele>120.85795</ele>
        <time>2026-07-18T12:09:08+00:00</time>
      </trkpt>
      <trkpt lat="-7.784103" lon="110.371287">
        <ele>120.67835</ele>
        <time>2026-07-18T12:09:19+00:00</time>
      </trkpt>
      <trkpt lat="-7.784179" lon="110.371224">
        <ele>120.601081</ele>
        <time>2026-07-18T12:09:23+00:00</time>
      </trkpt>
      <trkpt lat="-7.784388" lon="110.370976">
        <ele>120.347639</ele>
        <time>2026-07-18T12:09:35+00:00</time>
      </trkpt>
      <trkpt lat="-7.784416" lon="110.370888">
        <ele>120.275691</ele>
        <time>2026-07-18T12:09:38+00:00</time>
      </trkpt>
      <trkpt lat="-7.784803" lon="110.370425">
        <ele>119.804152</ele>
        <time>2026-07-18T12:10:00+00:00</time>
      </trkpt>
      <trkpt lat="-7.784896" lon="110.370318">
        <ele>119.693352</ele>
        <time>2026-07-18T12:10:05+00:00</time>
      </trkpt>
      <trkpt lat="-7.785154" lon="110.370022">
        <ele>119.297149</ele>
        <time>2026-07-18T12:10:19+00:00</time>
      </trkpt>
      <trkpt lat="-7.78531" lon="110.36984">
        <ele>118.823003</ele>
        <time>2026-07-18T12:10:28+00:00</time>
      </trkpt>
      <trkpt lat="-7.785538" lon="110.369594">
        <ele>118.159321</ele>
        <time>2026-07-18T12:10:40+00:00</time>
      </trkpt>
      <trkpt lat="-7.786029" lon="110.369018">
        <ele>116.662254</ele>
        <time>2026-07-18T12:11:06+00:00</time>
      </trkpt>
      <trkpt lat="-7.786263" lon="110.368813">
        <ele>116.046091</ele>
        <time>2026-07-18T12:11:17+00:00</time>
      </trkpt>
      <trkpt lat="-7.786561" lon="110.368674">
        <ele>115.785771</ele>
        <time>2026-07-18T12:11:29+00:00</time>
      </trkpt>
      <trkpt lat="-7.786734" lon="110.368618">
        <ele>115.723132</ele>
        <time>2026-07-18T12:11:35+00:00</time>
      </trkpt>
      <trkpt lat="-7.786928" lon="110.368571">
        <ele>115.654346</ele>
        <time>2026-07-18T12:11:43+00:00</time>
      </trkpt>
      <trkpt lat="-7.787053" lon="110.368562">
        <ele>115.61114</ele>
        <time>2026-07-18T12:11:47+00:00</time>
      </trkpt>
      <trkpt lat="-7.787121" lon="110.368558">
        <ele>115.587655</ele>
        <time>2026-07-18T12:11:50+00:00</time>
      </trkpt>
      <trkpt lat="-7.787426" lon="110.368573">
        <ele>115.482374</ele>
        <time>2026-07-18T12:12:01+00:00</time>
      </trkpt>
      <trkpt lat="-7.787744" lon="110.368623">
        <ele>115.371413</ele>
        <time>2026-07-18T12:12:13+00:00</time>
      </trkpt>
      <trkpt lat="-7.788295" lon="110.368841">
        <ele>115.120471</ele>
        <time>2026-07-18T12:12:36+00:00</time>
      </trkpt>
      <trkpt lat="-7.788458" lon="110.368938">
        <ele>115.017271</ele>
        <time>2026-07-18T12:12:43+00:00</time>
      </trkpt>
      <trkpt lat="-7.788551" lon="110.368988">
        <ele>114.959803</ele>
        <time>2026-07-18T12:12:47+00:00</time>
      </trkpt>
      <trkpt lat="-7.789019" lon="110.369366">
        <ele>114.632895</ele>
        <time>2026-07-18T12:13:09+00:00</time>
      </trkpt>
      <trkpt lat="-7.789444" lon="110.369815">
        <ele>114.297349</ele>
        <time>2026-07-18T12:13:31+00:00</time>
      </trkpt>
      <trkpt lat="-7.789476" lon="110.369731">
        <ele>114.204211</ele>
        <time>2026-07-18T12:13:35+00:00</time>
      </trkpt>
      <trkpt lat="-7.789539" lon="110.369296">
        <ele>113.388512</ele>
        <time>2026-07-18T12:13:50+00:00</time>
      </trkpt>
      <trkpt lat="-7.789575" lon="110.369186">
        <ele>113.173565</ele>
        <time>2026-07-18T12:13:54+00:00</time>
      </trkpt>
      <trkpt lat="-7.789711" lon="110.368966">
        <ele>112.692426</ele>
        <time>2026-07-18T12:14:03+00:00</time>
      </trkpt>
      <trkpt lat="-7.789753" lon="110.368892">
        <ele>112.53419</ele>
        <time>2026-07-18T12:14:06+00:00</time>
      </trkpt>
      <trkpt lat="-7.789711" lon="110.368625">
        <ele>112.032579</ele>
        <time>2026-07-18T12:14:15+00:00</time>
      </trkpt>
      <trkpt lat="-7.78971" lon="110.368557">
        <ele>111.906395</ele>
        <time>2026-07-18T12:14:17+00:00</time>
      </trkpt>
      <trkpt lat="-7.789799" lon="110.368531">
        <ele>111.73288</ele>
        <time>2026-07-18T12:14:21+00:00</time>
      </trkpt>
      <trkpt lat="-7.789861" lon="110.368521">
        <ele>111.615298</ele>
        <time>2026-07-18T12:14:23+00:00</time>
      </trkpt>
      <trkpt lat="-7.789946" lon="110.368506">
        <ele>111.453701</ele>
        <time>2026-07-18T12:14:26+00:00</time>
      </trkpt>
      <trkpt lat="-7.790071" lon="110.368455">
        <ele>111.201207</ele>
        <time>2026-07-18T12:14:31+00:00</time>
      </trkpt>
      <trkpt lat="-7.790324" lon="110.36835">
        <ele>111.019478</ele>
        <time>2026-07-18T12:14:42+00:00</time>
      </trkpt>
      <trkpt lat="-7.790377" lon="110.368283">
        <ele>111.111146</ele>
        <time>2026-07-18T12:14:45+00:00</time>
      </trkpt>
      <trkpt lat="-7.790392" lon="110.368214">
        <ele>111.186676</ele>
        <time>2026-07-18T12:14:47+00:00</time>
      </trkpt>
      <trkpt lat="-7.790389" lon="110.368106">
        <ele>111.302195</ele>
        <time>2026-07-18T12:14:52+00:00</time>
      </trkpt>
      <trkpt lat="-7.790353" lon="110.368002">
        <ele>111.419983</ele>
        <time>2026-07-18T12:14:56+00:00</time>
      </trkpt>
      <trkpt lat="-7.790439" lon="110.367838">
        <ele>111.618378</ele>
        <time>2026-07-18T12:15:03+00:00</time>
      </trkpt>
      <trkpt lat="-7.790508" lon="110.36776">
        <ele>111.73018</ele>
        <time>2026-07-18T12:15:07+00:00</time>
      </trkpt>
      <trkpt lat="-7.790645" lon="110.367672">
        <ele>111.905426</ele>
        <time>2026-07-18T12:15:13+00:00</time>
      </trkpt>
      <trkpt lat="-7.790816" lon="110.367618">
        <ele>112.098783</ele>
        <time>2026-07-18T12:15:20+00:00</time>
      </trkpt>
      <trkpt lat="-7.791008" lon="110.367616">
        <ele>112.305993</ele>
        <time>2026-07-18T12:15:28+00:00</time>
      </trkpt>
      <trkpt lat="-7.791353" lon="110.367611">
        <ele>112.678342</ele>
        <time>2026-07-18T12:15:42+00:00</time>
      </trkpt>
      <trkpt lat="-7.791467" lon="110.36761">
        <ele>112.801371</ele>
        <time>2026-07-18T12:15:47+00:00</time>
      </trkpt>
      <trkpt lat="-7.79158" lon="110.367608">
        <ele>112.817582</ele>
        <time>2026-07-18T12:15:51+00:00</time>
      </trkpt>
      <trkpt lat="-7.792096" lon="110.367602">
        <ele>112.6707</ele>
        <time>2026-07-18T12:16:11+00:00</time>
      </trkpt>
      <trkpt lat="-7.792302" lon="110.367599">
        <ele>112.612058</ele>
        <time>2026-07-18T12:16:18+00:00</time>
      </trkpt>
      <trkpt lat="-7.792639" lon="110.367595">
        <ele>112.516129</ele>
        <time>2026-07-18T12:16:31+00:00</time>
      </trkpt>
      <trkpt lat="-7.792707" lon="110.367594">
        <ele>112.496771</ele>
        <time>2026-07-18T12:16:33+00:00</time>
      </trkpt>
      <trkpt lat="-7.792767" lon="110.367593">
        <ele>112.479691</ele>
        <time>2026-07-18T12:16:35+00:00</time>
      </trkpt>
      <trkpt lat="-7.793035" lon="110.367614">
        <ele>112.403179</ele>
        <time>2026-07-18T12:16:45+00:00</time>
      </trkpt>
      <trkpt lat="-7.793182" lon="110.367627">
        <ele>112.361177</ele>
        <time>2026-07-18T12:16:50+00:00</time>
      </trkpt>
      <trkpt lat="-7.793481" lon="110.367655">
        <ele>111.837058</ele>
        <time>2026-07-18T12:17:01+00:00</time>
      </trkpt>
      <trkpt lat="-7.79352" lon="110.367663">
        <ele>111.730153</ele>
        <time>2026-07-18T12:17:03+00:00</time>
      </trkpt>
      <trkpt lat="-7.793693" lon="110.367699">
        <ele>111.255659</ele>
        <time>2026-07-18T12:17:09+00:00</time>
      </trkpt>
      <trkpt lat="-7.793863" lon="110.36779">
        <ele>110.738751</ele>
        <time>2026-07-18T12:17:15+00:00</time>
      </trkpt>
      <trkpt lat="-7.793899" lon="110.367804">
        <ele>110.635116</ele>
        <time>2026-07-18T12:17:17+00:00</time>
      </trkpt>
      <trkpt lat="-7.793969" lon="110.36787">
        <ele>110.377799</ele>
        <time>2026-07-18T12:17:20+00:00</time>
      </trkpt>
      <trkpt lat="-7.794161" lon="110.368052">
        <ele>109.670248</ele>
        <time>2026-07-18T12:17:29+00:00</time>
      </trkpt>
      <trkpt lat="-7.794218" lon="110.368106">
        <ele>109.46025</ele>
        <time>2026-07-18T12:17:32+00:00</time>
      </trkpt>
      <trkpt lat="-7.794264" lon="110.368149">
        <ele>109.291829</ele>
        <time>2026-07-18T12:17:34+00:00</time>
      </trkpt>
      <trkpt lat="-7.794302" lon="110.368109">
        <ele>109.144341</ele>
        <time>2026-07-18T12:17:36+00:00</time>
      </trkpt>
      <trkpt lat="-7.79435" lon="110.368144">
        <ele>108.985274</ele>
        <time>2026-07-18T12:17:38+00:00</time>
      </trkpt>
      <trkpt lat="-7.794323" lon="110.368208">
        <ele>108.800145</ele>
        <time>2026-07-18T12:17:40+00:00</time>
      </trkpt>
      <trkpt lat="-7.794383" lon="110.368314">
        <ele>108.475239</ele>
        <time>2026-07-18T12:17:44+00:00</time>
      </trkpt>
      <trkpt lat="-7.794574" lon="110.368655">
        <ele>107.511593</ele>
        <time>2026-07-18T12:17:58+00:00</time>
      </trkpt>
      <trkpt lat="-7.794774" lon="110.368904">
        <ele>107.719943</ele>
        <time>2026-07-18T12:18:10+00:00</time>
      </trkpt>
      <trkpt lat="-7.794605" lon="110.369085">
        <ele>107.881602</ele>
        <time>2026-07-18T12:18:19+00:00</time>
      </trkpt>
      <trkpt lat="-7.794208" lon="110.369606">
        <ele>108.308817</ele>
        <time>2026-07-18T12:18:44+00:00</time>
      </trkpt>
      <trkpt lat="-7.794188" lon="110.369633">
        <ele>108.33073</ele>
        <time>2026-07-18T12:18:45+00:00</time>
      </trkpt>
      <trkpt lat="-7.794011" lon="110.36987">
        <ele>108.52364</ele>
        <time>2026-07-18T12:18:58+00:00</time>
      </trkpt>
      <trkpt lat="-7.79377" lon="110.370199">
        <ele>109.108636</ele>
        <time>2026-07-18T12:19:18+00:00</time>
      </trkpt>
      <trkpt lat="-7.793638" lon="110.370379">
        <ele>109.66342</ele>
        <time>2026-07-18T12:19:30+00:00</time>
      </trkpt>
      <trkpt lat="-7.793452" lon="110.370732">
        <ele>110.653902</ele>
        <time>2026-07-18T12:19:50+00:00</time>
      </trkpt>
      <trkpt lat="-7.793425" lon="110.370876">
        <ele>111.016972</ele>
        <time>2026-07-18T12:19:57+00:00</time>
      </trkpt>
      <trkpt lat="-7.793416" lon="110.371178">
        <ele>111.765468</ele>
        <time>2026-07-18T12:20:11+00:00</time>
      </trkpt>
      <trkpt lat="-7.793402" lon="110.371548">
        <ele>112.682754</ele>
        <time>2026-07-18T12:20:28+00:00</time>
      </trkpt>
      <trkpt lat="-7.7934" lon="110.371583">
        <ele>112.769605</ele>
        <time>2026-07-18T12:20:30+00:00</time>
      </trkpt>
      <trkpt lat="-7.793402" lon="110.371625">
        <ele>112.873774</ele>
        <time>2026-07-18T12:20:31+00:00</time>
      </trkpt>
      <trkpt lat="-7.7934" lon="110.371583">
        <ele>112.977942</ele>
        <time>2026-07-18T12:20:33+00:00</time>
      </trkpt>
      <trkpt lat="-7.792571" lon="110.371937">
        <ele>114.230591</ele>
        <time>2026-07-18T12:21:14+00:00</time>
      </trkpt>
      <trkpt lat="-7.792413" lon="110.372003">
        <ele>114.450511</ele>
        <time>2026-07-18T12:21:22+00:00</time>
      </trkpt>
      <trkpt lat="-7.792285" lon="110.372057">
        <ele>114.628935</ele>
        <time>2026-07-18T12:21:29+00:00</time>
      </trkpt>
      <trkpt lat="-7.791664" lon="110.372325">
        <ele>115.495795</ele>
        <time>2026-07-18T12:22:00+00:00</time>
      </trkpt>
      <trkpt lat="-7.791129" lon="110.372519">
        <ele>116.108044</ele>
        <time>2026-07-18T12:22:27+00:00</time>
      </trkpt>
      <trkpt lat="-7.791008" lon="110.372575">
        <ele>116.251407</ele>
        <time>2026-07-18T12:22:33+00:00</time>
      </trkpt>
      <trkpt lat="-7.790854" lon="110.372715">
        <ele>116.474622</ele>
        <time>2026-07-18T12:22:42+00:00</time>
      </trkpt>
      <trkpt lat="-7.790728" lon="110.372838">
        <ele>116.66341</ele>
        <time>2026-07-18T12:22:50+00:00</time>
      </trkpt>
      <trkpt lat="-7.790637" lon="110.372887">
        <ele>116.774491</ele>
        <time>2026-07-18T12:22:55+00:00</time>
      </trkpt>
      <trkpt lat="-7.790449" lon="110.372951">
        <ele>116.988173</ele>
        <time>2026-07-18T12:23:04+00:00</time>
      </trkpt>
      <trkpt lat="-7.790452" lon="110.373013">
        <ele>117.054409</ele>
        <time>2026-07-18T12:23:06+00:00</time>
      </trkpt>
      <trkpt lat="-7.790449" lon="110.372951">
        <ele>117.120645</ele>
        <time>2026-07-18T12:23:09+00:00</time>
      </trkpt>
      <trkpt lat="-7.790383" lon="110.372924">
        <ele>117.197343</ele>
        <time>2026-07-18T12:23:12+00:00</time>
      </trkpt>
      <trkpt lat="-7.790324" lon="110.372944">
        <ele>117.264374</ele>
        <time>2026-07-18T12:23:15+00:00</time>
      </trkpt>
      <trkpt lat="-7.790127" lon="110.372937">
        <ele>117.436843</ele>
        <time>2026-07-18T12:23:22+00:00</time>
      </trkpt>
      <trkpt lat="-7.789962" lon="110.372998">
        <ele>117.483324</ele>
        <time>2026-07-18T12:23:29+00:00</time>
      </trkpt>
      <trkpt lat="-7.789843" lon="110.37313">
        <ele>117.530097</ele>
        <time>2026-07-18T12:23:35+00:00</time>
      </trkpt>
      <trkpt lat="-7.78965" lon="110.373668">
        <ele>117.680054</ele>
        <time>2026-07-18T12:23:56+00:00</time>
      </trkpt>
      <trkpt lat="-7.789634" lon="110.373697">
        <ele>117.688753</ele>
        <time>2026-07-18T12:23:58+00:00</time>
      </trkpt>
      <trkpt lat="-7.789614" lon="110.373724">
        <ele>117.697588</ele>
        <time>2026-07-18T12:23:59+00:00</time>
      </trkpt>
      <trkpt lat="-7.78953" lon="110.373775">
        <ele>117.723518</ele>
        <time>2026-07-18T12:24:03+00:00</time>
      </trkpt>
      <trkpt lat="-7.789205" lon="110.373837">
        <ele>117.81101</ele>
        <time>2026-07-18T12:24:15+00:00</time>
      </trkpt>
      <trkpt lat="-7.788952" lon="110.373878">
        <ele>117.878791</ele>
        <time>2026-07-18T12:24:25+00:00</time>
      </trkpt>
      <trkpt lat="-7.788553" lon="110.373975">
        <ele>118.003067</ele>
        <time>2026-07-18T12:24:40+00:00</time>
      </trkpt>
      <trkpt lat="-7.788429" lon="110.373581">
        <ele>118.130824</ele>
        <time>2026-07-18T12:24:55+00:00</time>
      </trkpt>
      <trkpt lat="-7.788331" lon="110.373393">
        <ele>118.196474</ele>
        <time>2026-07-18T12:25:03+00:00</time>
      </trkpt>
      <trkpt lat="-7.788305" lon="110.373343">
        <ele>118.213925</ele>
        <time>2026-07-18T12:25:05+00:00</time>
      </trkpt>
      <trkpt lat="-7.788162" lon="110.373243">
        <ele>118.268189</ele>
        <time>2026-07-18T12:25:12+00:00</time>
      </trkpt>
      <trkpt lat="-7.788094" lon="110.373226">
        <ele>118.29004</ele>
        <time>2026-07-18T12:25:14+00:00</time>
      </trkpt>
      <trkpt lat="-7.78804" lon="110.373213">
        <ele>118.307356</ele>
        <time>2026-07-18T12:25:17+00:00</time>
      </trkpt>
      <trkpt lat="-7.787906" lon="110.373201">
        <ele>118.349317</ele>
        <time>2026-07-18T12:25:22+00:00</time>
      </trkpt>
      <trkpt lat="-7.787664" lon="110.373179">
        <ele>118.425106</ele>
        <time>2026-07-18T12:25:31+00:00</time>
      </trkpt>
      <trkpt lat="-7.78745" lon="110.373169">
        <ele>118.563047</ele>
        <time>2026-07-18T12:25:39+00:00</time>
      </trkpt>
      <trkpt lat="-7.787129" lon="110.373192">
        <ele>118.891882</ele>
        <time>2026-07-18T12:25:52+00:00</time>
      </trkpt>
      <trkpt lat="-7.786988" lon="110.373239">
        <ele>119.043615</ele>
        <time>2026-07-18T12:25:57+00:00</time>
      </trkpt>
      <trkpt lat="-7.786889" lon="110.373318">
        <ele>119.172575</ele>
        <time>2026-07-18T12:26:02+00:00</time>
      </trkpt>
      <trkpt lat="-7.786914" lon="110.373198">
        <ele>119.296721</ele>
        <time>2026-07-18T12:26:07+00:00</time>
      </trkpt>
      <trkpt lat="-7.786889" lon="110.373318">
        <ele>119.420868</ele>
        <time>2026-07-18T12:26:12+00:00</time>
      </trkpt>
      <trkpt lat="-7.786837" lon="110.373802">
        <ele>119.913749</ele>
        <time>2026-07-18T12:26:31+00:00</time>
      </trkpt>
      <trkpt lat="-7.786868" lon="110.374146">
        <ele>120.263457</ele>
        <time>2026-07-18T12:26:44+00:00</time>
      </trkpt>
      <trkpt lat="-7.78688" lon="110.374208">
        <ele>120.303171</ele>
        <time>2026-07-18T12:26:46+00:00</time>
      </trkpt>
      <trkpt lat="-7.786927" lon="110.374443">
        <ele>120.341667</ele>
        <time>2026-07-18T12:26:55+00:00</time>
      </trkpt>
      <trkpt lat="-7.787073" lon="110.374825">
        <ele>120.407412</ele>
        <time>2026-07-18T12:27:11+00:00</time>
      </trkpt>
      <trkpt lat="-7.787299" lon="110.375151">
        <ele>120.471301</ele>
        <time>2026-07-18T12:27:26+00:00</time>
      </trkpt>
      <trkpt lat="-7.787312" lon="110.375171">
        <ele>120.475142</ele>
        <time>2026-07-18T12:27:27+00:00</time>
      </trkpt>
      <trkpt lat="-7.787444" lon="110.375251">
        <ele>120.500095</ele>
        <time>2026-07-18T12:27:33+00:00</time>
      </trkpt>
      <trkpt lat="-7.787525" lon="110.375258">
        <ele>120.513271</ele>
        <time>2026-07-18T12:27:36+00:00</time>
      </trkpt>
      <trkpt lat="-7.787557" lon="110.375252">
        <ele>120.518546</ele>
        <time>2026-07-18T12:27:37+00:00</time>
      </trkpt>
      <trkpt lat="-7.787668" lon="110.375232">
        <ele>120.53682</ele>
        <time>2026-07-18T12:27:41+00:00</time>
      </trkpt>
      <trkpt lat="-7.787788" lon="110.375166">
        <ele>120.558968</ele>
        <time>2026-07-18T12:27:46+00:00</time>
      </trkpt>
      <trkpt lat="-7.787961" lon="110.375071">
        <ele>120.584218</ele>
        <time>2026-07-18T12:27:53+00:00</time>
      </trkpt>
      <trkpt lat="-7.78805" lon="110.375022">
        <ele>120.460611</ele>
        <time>2026-07-18T12:27:57+00:00</time>
      </trkpt>
      <trkpt lat="-7.7881" lon="110.374996">
        <ele>120.392034</ele>
        <time>2026-07-18T12:27:59+00:00</time>
      </trkpt>
      <trkpt lat="-7.788352" lon="110.374864">
        <ele>120.045872</ele>
        <time>2026-07-18T12:28:09+00:00</time>
      </trkpt>
      <trkpt lat="-7.788459" lon="110.37473">
        <ele>119.837973</ele>
        <time>2026-07-18T12:28:15+00:00</time>
      </trkpt>
      <trkpt lat="-7.788546" lon="110.374532">
        <ele>119.576324</ele>
        <time>2026-07-18T12:28:23+00:00</time>
      </trkpt>
      <trkpt lat="-7.788576" lon="110.374293">
        <ele>119.285305</ele>
        <time>2026-07-18T12:28:31+00:00</time>
      </trkpt>
      <trkpt lat="-7.78857" lon="110.37421">
        <ele>119.184775</ele>
        <time>2026-07-18T12:28:34+00:00</time>
      </trkpt>
      <trkpt lat="-7.788553" lon="110.373975">
        <ele>118.900141</ele>
        <time>2026-07-18T12:28:43+00:00</time>
      </trkpt>
      <trkpt lat="-7.788429" lon="110.373581">
        <ele>118.400755</ele>
        <time>2026-07-18T12:28:57+00:00</time>
      </trkpt>
      <trkpt lat="-7.788331" lon="110.373393">
        <ele>118.49681</ele>
        <time>2026-07-18T12:29:05+00:00</time>
      </trkpt>
      <trkpt lat="-7.788305" lon="110.373343">
        <ele>118.523689</ele>
        <time>2026-07-18T12:29:07+00:00</time>
      </trkpt>
      <trkpt lat="-7.788162" lon="110.373243">
        <ele>118.607271</ele>
        <time>2026-07-18T12:29:14+00:00</time>
      </trkpt>
      <trkpt lat="-7.788094" lon="110.373226">
        <ele>118.640928</ele>
        <time>2026-07-18T12:29:16+00:00</time>
      </trkpt>
      <trkpt lat="-7.78804" lon="110.373213">
        <ele>118.6676</ele>
        <time>2026-07-18T12:29:18+00:00</time>
      </trkpt>
      <trkpt lat="-7.787906" lon="110.373201">
        <ele>118.732232</ele>
        <time>2026-07-18T12:29:24+00:00</time>
      </trkpt>
      <trkpt lat="-7.787664" lon="110.373179">
        <ele>118.848969</ele>
        <time>2026-07-18T12:29:33+00:00</time>
      </trkpt>
      <trkpt lat="-7.78745" lon="110.373169">
        <ele>118.951893</ele>
        <time>2026-07-18T12:29:41+00:00</time>
      </trkpt>
      <trkpt lat="-7.787172" lon="110.373189">
        <ele>119.085794</ele>
        <time>2026-07-18T12:29:52+00:00</time>
      </trkpt>
      <trkpt lat="-7.787129" lon="110.373192">
        <ele>119.106503</ele>
        <time>2026-07-18T12:29:54+00:00</time>
      </trkpt>
      <trkpt lat="-7.786988" lon="110.373239">
        <ele>119.177844</ele>
        <time>2026-07-18T12:29:59+00:00</time>
      </trkpt>
      <trkpt lat="-7.786889" lon="110.373318">
        <ele>119.238477</ele>
        <time>2026-07-18T12:30:04+00:00</time>
      </trkpt>
      <trkpt lat="-7.786837" lon="110.373802">
        <ele>119.672784</ele>
        <time>2026-07-18T12:30:23+00:00</time>
      </trkpt>
      <trkpt lat="-7.786868" lon="110.374146">
        <ele>119.996606</ele>
        <time>2026-07-18T12:30:37+00:00</time>
      </trkpt>
      <trkpt lat="-7.786927" lon="110.374443">
        <ele>120.280576</ele>
        <time>2026-07-18T12:30:48+00:00</time>
      </trkpt>
      <trkpt lat="-7.787073" lon="110.374825">
        <ele>120.664412</ele>
        <time>2026-07-18T12:31:04+00:00</time>
      </trkpt>
      <trkpt lat="-7.787299" lon="110.375151">
        <ele>120.961117</ele>
        <time>2026-07-18T12:31:19+00:00</time>
      </trkpt>
      <trkpt lat="-7.787312" lon="110.375171">
        <ele>120.960509</ele>
        <time>2026-07-18T12:31:20+00:00</time>
      </trkpt>
      <trkpt lat="-7.78729" lon="110.375283">
        <ele>120.957604</ele>
        <time>2026-07-18T12:31:24+00:00</time>
      </trkpt>
      <trkpt lat="-7.787394" lon="110.375385">
        <ele>120.953881</ele>
        <time>2026-07-18T12:31:29+00:00</time>
      </trkpt>
      <trkpt lat="-7.787585" lon="110.376052">
        <ele>120.936221</ele>
        <time>2026-07-18T12:31:55+00:00</time>
      </trkpt>
      <trkpt lat="-7.787565" lon="110.376149">
        <ele>120.933701</ele>
        <time>2026-07-18T12:31:58+00:00</time>
      </trkpt>
      <trkpt lat="-7.787502" lon="110.376237">
        <ele>120.930939</ele>
        <time>2026-07-18T12:32:02+00:00</time>
      </trkpt>
      <trkpt lat="-7.787184" lon="110.376407">
        <ele>120.921701</ele>
        <time>2026-07-18T12:32:16+00:00</time>
      </trkpt>
      <trkpt lat="-7.786984" lon="110.376514">
        <ele>120.91803</ele>
        <time>2026-07-18T12:32:24+00:00</time>
      </trkpt>
      <trkpt lat="-7.787131" lon="110.377407">
        <ele>120.941227</ele>
        <time>2026-07-18T12:32:58+00:00</time>
      </trkpt>
      <trkpt lat="-7.787305" lon="110.378384">
        <ele>120.856786</ele>
        <time>2026-07-18T12:33:34+00:00</time>
      </trkpt>
      <trkpt lat="-7.787344" lon="110.378588">
        <ele>120.678662</ele>
        <time>2026-07-18T12:33:42+00:00</time>
      </trkpt>
      <trkpt lat="-7.787252" lon="110.378606">
        <ele>120.597571</ele>
        <time>2026-07-18T12:33:46+00:00</time>
      </trkpt>
      <trkpt lat="-7.787173" lon="110.378621">
        <ele>120.528011</ele>
        <time>2026-07-18T12:33:48+00:00</time>
      </trkpt>
      <trkpt lat="-7.787079" lon="110.378638">
        <ele>120.445375</ele>
        <time>2026-07-18T12:33:52+00:00</time>
      </trkpt>
      <trkpt lat="-7.78714" lon="110.378874">
        <ele>120.236271</ele>
        <time>2026-07-18T12:34:01+00:00</time>
      </trkpt>
      <trkpt lat="-7.787246" lon="110.379233">
        <ele>119.915109</ele>
        <time>2026-07-18T12:34:14+00:00</time>
      </trkpt>
      <trkpt lat="-7.787317" lon="110.379447">
        <ele>119.721624</ele>
        <time>2026-07-18T12:34:22+00:00</time>
      </trkpt>
      <trkpt lat="-7.787349" lon="110.379554">
        <ele>119.625801</ele>
        <time>2026-07-18T12:34:26+00:00</time>
      </trkpt>
      <trkpt lat="-7.787447" lon="110.379869">
        <ele>119.38924</ele>
        <time>2026-07-18T12:34:38+00:00</time>
      </trkpt>
      <trkpt lat="-7.787507" lon="110.380059">
        <ele>119.341853</ele>
        <time>2026-07-18T12:34:45+00:00</time>
      </trkpt>
      <trkpt lat="-7.787581" lon="110.380345">
        <ele>119.271612</ele>
        <time>2026-07-18T12:34:56+00:00</time>
      </trkpt>
      <trkpt lat="-7.787584" lon="110.380438">
        <ele>119.249501</ele>
        <time>2026-07-18T12:34:59+00:00</time>
      </trkpt>
      <trkpt lat="-7.787417" lon="110.381012">
        <ele>119.107344</ele>
        <time>2026-07-18T12:35:21+00:00</time>
      </trkpt>
      <trkpt lat="-7.787331" lon="110.381275">
        <ele>119.041533</ele>
        <time>2026-07-18T12:35:31+00:00</time>
      </trkpt>
      <trkpt lat="-7.787323" lon="110.381309">
        <ele>119.033229</ele>
        <time>2026-07-18T12:35:33+00:00</time>
      </trkpt>
      <trkpt lat="-7.787181" lon="110.381881">
        <ele>119.642395</ele>
        <time>2026-07-18T12:35:56+00:00</time>
      </trkpt>
      <trkpt lat="-7.787063" lon="110.382016">
        <ele>119.987761</ele>
        <time>2026-07-18T12:36:03+00:00</time>
      </trkpt>
      <trkpt lat="-7.78704" lon="110.382028">
        <ele>120.037894</ele>
        <time>2026-07-18T12:36:04+00:00</time>
      </trkpt>
      <trkpt lat="-7.786904" lon="110.382098">
        <ele>120.333492</ele>
        <time>2026-07-18T12:36:10+00:00</time>
      </trkpt>
      <trkpt lat="-7.786321" lon="110.382168">
        <ele>121.470302</ele>
        <time>2026-07-18T12:36:34+00:00</time>
      </trkpt>
      <trkpt lat="-7.786118" lon="110.38213">
        <ele>121.87007</ele>
        <time>2026-07-18T12:36:43+00:00</time>
      </trkpt>
      <trkpt lat="-7.786123" lon="110.382379">
        <ele>122.347856</ele>
        <time>2026-07-18T12:36:53+00:00</time>
      </trkpt>
      <trkpt lat="-7.786149" lon="110.382326">
        <ele>122.460052</ele>
        <time>2026-07-18T12:36:55+00:00</time>
      </trkpt>
      <trkpt lat="-7.786123" lon="110.382379">
        <ele>122.525074</ele>
        <time>2026-07-18T12:36:57+00:00</time>
      </trkpt>
      <trkpt lat="-7.78615" lon="110.383024">
        <ele>123.234841</ele>
        <time>2026-07-18T12:37:22+00:00</time>
      </trkpt>
      <trkpt lat="-7.78616" lon="110.383695">
        <ele>123.972643</ele>
        <time>2026-07-18T12:37:48+00:00</time>
      </trkpt>
      <trkpt lat="-7.786166" lon="110.384059">
        <ele>124.372892</ele>
        <time>2026-07-18T12:38:02+00:00</time>
      </trkpt>
      <trkpt lat="-7.786186" lon="110.384923">
        <ele>124.490013</ele>
        <time>2026-07-18T12:38:34+00:00</time>
      </trkpt>
      <trkpt lat="-7.786205" lon="110.385732">
        <ele>124.526638</ele>
        <time>2026-07-18T12:39:04+00:00</time>
      </trkpt>
      <trkpt lat="-7.786226" lon="110.386438">
        <ele>124.542494</ele>
        <time>2026-07-18T12:39:30+00:00</time>
      </trkpt>
      <trkpt lat="-7.786225" lon="110.386488">
        <ele>124.543115</ele>
        <time>2026-07-18T12:39:32+00:00</time>
      </trkpt>
      <trkpt lat="-7.786221" lon="110.386585">
        <ele>124.544319</ele>
        <time>2026-07-18T12:39:35+00:00</time>
      </trkpt>
      <trkpt lat="-7.786171" lon="110.386904">
        <ele>124.548326</ele>
        <time>2026-07-18T12:39:47+00:00</time>
      </trkpt>
      <trkpt lat="-7.78613" lon="110.387006">
        <ele>124.549692</ele>
        <time>2026-07-18T12:39:51+00:00</time>
      </trkpt>
      <trkpt lat="-7.785989" lon="110.38724">
        <ele>124.553089</ele>
        <time>2026-07-18T12:40:01+00:00</time>
      </trkpt>
      <trkpt lat="-7.785789" lon="110.387489">
        <ele>124.557066</ele>
        <time>2026-07-18T12:40:13+00:00</time>
      </trkpt>
      <trkpt lat="-7.785672" lon="110.387598">
        <ele>124.569984</ele>
        <time>2026-07-18T12:40:19+00:00</time>
      </trkpt>
      <trkpt lat="-7.785622" lon="110.387644">
        <ele>124.643356</ele>
        <time>2026-07-18T12:40:22+00:00</time>
      </trkpt>
      <trkpt lat="-7.785517" lon="110.387735">
        <ele>124.793449</ele>
        <time>2026-07-18T12:40:27+00:00</time>
      </trkpt>
      <trkpt lat="-7.785452" lon="110.387791">
        <ele>124.886131</ele>
        <time>2026-07-18T12:40:30+00:00</time>
      </trkpt>
      <trkpt lat="-7.785147" lon="110.388026">
        <ele>125.302269</ele>
        <time>2026-07-18T12:40:45+00:00</time>
      </trkpt>
      <trkpt lat="-7.784958" lon="110.388124">
        <ele>125.532706</ele>
        <time>2026-07-18T12:40:53+00:00</time>
      </trkpt>
      <trkpt lat="-7.784773" lon="110.388148">
        <ele>125.73499</ele>
        <time>2026-07-18T12:41:00+00:00</time>
      </trkpt>
      <trkpt lat="-7.784525" lon="110.388142">
        <ele>126.004023</ele>
        <time>2026-07-18T12:41:10+00:00</time>
      </trkpt>
      <trkpt lat="-7.784383" lon="110.388128">
        <ele>126.158755</ele>
        <time>2026-07-18T12:41:15+00:00</time>
      </trkpt>
      <trkpt lat="-7.784027" lon="110.388093">
        <ele>126.57575</ele>
        <time>2026-07-18T12:41:30+00:00</time>
      </trkpt>
      <trkpt lat="-7.783142" lon="110.387979">
        <ele>128.301799</ele>
        <time>2026-07-18T12:42:06+00:00</time>
      </trkpt>
      <trkpt lat="-7.783093" lon="110.387973">
        <ele>128.397292</ele>
        <time>2026-07-18T12:42:08+00:00</time>
      </trkpt>
      <trkpt lat="-7.783093" lon="110.387874">
        <ele>128.587058</ele>
        <time>2026-07-18T12:42:12+00:00</time>
      </trkpt>
      <trkpt lat="-7.783031" lon="110.387778">
        <ele>128.806714</ele>
        <time>2026-07-18T12:42:17+00:00</time>
      </trkpt>
      <trkpt lat="-7.782974" lon="110.387741">
        <ele>128.937827</ele>
        <time>2026-07-18T12:42:20+00:00</time>
      </trkpt>
      <trkpt lat="-7.782764" lon="110.387743">
        <ele>129.344121</ele>
        <time>2026-07-18T12:42:28+00:00</time>
      </trkpt>
      <trkpt lat="-7.782302" lon="110.387825">
        <ele>130.014226</ele>
        <time>2026-07-18T12:42:47+00:00</time>
      </trkpt>
      <trkpt lat="-7.78137" lon="110.387998">
        <ele>130.188417</ele>
        <time>2026-07-18T12:43:23+00:00</time>
      </trkpt>
      <trkpt lat="-7.781346" lon="110.3879">
        <ele>130.206803</ele>
        <time>2026-07-18T12:43:27+00:00</time>
      </trkpt>
      <trkpt lat="-7.781213" lon="110.38737">
        <ele>130.306377</ele>
        <time>2026-07-18T12:43:50+00:00</time>
      </trkpt>
      <trkpt lat="-7.781171" lon="110.387184">
        <ele>130.209032</ele>
        <time>2026-07-18T12:43:58+00:00</time>
      </trkpt>
      <trkpt lat="-7.781132" lon="110.38693">
        <ele>129.964156</ele>
        <time>2026-07-18T12:44:09+00:00</time>
      </trkpt>
      <trkpt lat="-7.781038" lon="110.386481">
        <ele>129.526947</ele>
        <time>2026-07-18T12:44:28+00:00</time>
      </trkpt>
      <trkpt lat="-7.781024" lon="110.386298">
        <ele>129.352082</ele>
        <time>2026-07-18T12:44:36+00:00</time>
      </trkpt>
      <trkpt lat="-7.781021" lon="110.386254">
        <ele>129.310064</ele>
        <time>2026-07-18T12:44:38+00:00</time>
      </trkpt>
      <trkpt lat="-7.781301" lon="110.386211">
        <ele>129.037729</ele>
        <time>2026-07-18T12:44:48+00:00</time>
      </trkpt>
      <trkpt lat="-7.781557" lon="110.386171">
        <ele>128.788637</ele>
        <time>2026-07-18T12:44:58+00:00</time>
      </trkpt>
      <trkpt lat="-7.781713" lon="110.386147">
        <ele>128.636901</ele>
        <time>2026-07-18T12:45:03+00:00</time>
      </trkpt>
      <trkpt lat="-7.781644" lon="110.385825">
        <ele>128.591057</ele>
        <time>2026-07-18T12:45:16+00:00</time>
      </trkpt>
      <trkpt lat="-7.78159" lon="110.385574">
        <ele>128.59164</ele>
        <time>2026-07-18T12:45:25+00:00</time>
      </trkpt>
      <trkpt lat="-7.781761" lon="110.385521">
        <ele>128.59205</ele>
        <time>2026-07-18T12:45:32+00:00</time>
      </trkpt>
      <trkpt lat="-7.781954" lon="110.385462">
        <ele>128.592511</ele>
        <time>2026-07-18T12:45:39+00:00</time>
      </trkpt>
      <trkpt lat="-7.782206" lon="110.385409">
        <ele>128.593101</ele>
        <time>2026-07-18T12:45:49+00:00</time>
      </trkpt>
      <trkpt lat="-7.782298" lon="110.385389">
        <ele>128.593317</ele>
        <time>2026-07-18T12:45:52+00:00</time>
      </trkpt>
      <trkpt lat="-7.782462" lon="110.385353">
        <ele>128.593701</ele>
        <time>2026-07-18T12:45:59+00:00</time>
      </trkpt>
      <trkpt lat="-7.78292" lon="110.385336">
        <ele>128.624066</ele>
        <time>2026-07-18T12:46:16+00:00</time>
      </trkpt>
      <trkpt lat="-7.783067" lon="110.38533">
        <ele>128.671221</ele>
        <time>2026-07-18T12:46:21+00:00</time>
      </trkpt>
      <trkpt lat="-7.783077" lon="110.385895">
        <ele>128.850676</ele>
        <time>2026-07-18T12:46:42+00:00</time>
      </trkpt>
      <trkpt lat="-7.783078" lon="110.385957">
        <ele>128.870367</ele>
        <time>2026-07-18T12:46:45+00:00</time>
      </trkpt>
      <trkpt lat="-7.783079" lon="110.386164">
        <ele>128.936105</ele>
        <time>2026-07-18T12:46:52+00:00</time>
      </trkpt>
      <trkpt lat="-7.78308" lon="110.386197">
        <ele>128.94659</ele>
        <time>2026-07-18T12:46:54+00:00</time>
      </trkpt>
      <trkpt lat="-7.783084" lon="110.386513">
        <ele>129.046949</ele>
        <time>2026-07-18T12:47:06+00:00</time>
      </trkpt>
      <trkpt lat="-7.783084" lon="110.386529">
        <ele>129.05203</ele>
        <time>2026-07-18T12:47:06+00:00</time>
      </trkpt>
      <trkpt lat="-7.783085" lon="110.386606">
        <ele>129.076485</ele>
        <time>2026-07-18T12:47:09+00:00</time>
      </trkpt>
      <trkpt lat="-7.78309" lon="110.387037">
        <ele>129.273189</ele>
        <time>2026-07-18T12:47:25+00:00</time>
      </trkpt>
      <trkpt lat="-7.783091" lon="110.387156">
        <ele>129.364397</ele>
        <time>2026-07-18T12:47:30+00:00</time>
      </trkpt>
      <trkpt lat="-7.783092" lon="110.387247">
        <ele>129.434147</ele>
        <time>2026-07-18T12:47:33+00:00</time>
      </trkpt>
      <trkpt lat="-7.783095" lon="110.387472">
        <ele>129.606609</ele>
        <time>2026-07-18T12:47:42+00:00</time>
      </trkpt>
      <trkpt lat="-7.783095" lon="110.387574">
        <ele>129.684785</ele>
        <time>2026-07-18T12:47:46+00:00</time>
      </trkpt>
      <trkpt lat="-7.783095" lon="110.387596">
        <ele>129.701647</ele>
        <time>2026-07-18T12:47:46+00:00</time>
      </trkpt>
      <trkpt lat="-7.783065" lon="110.387661">
        <ele>129.756605</ele>
        <time>2026-07-18T12:47:49+00:00</time>
      </trkpt>
      <trkpt lat="-7.783048" lon="110.387675">
        <ele>129.773577</ele>
        <time>2026-07-18T12:47:50+00:00</time>
      </trkpt>
      <trkpt lat="-7.782974" lon="110.387741">
        <ele>129.849968</ele>
        <time>2026-07-18T12:47:54+00:00</time>
      </trkpt>
      <trkpt lat="-7.782871" lon="110.387742">
        <ele>129.929648</ele>
        <time>2026-07-18T12:47:58+00:00</time>
      </trkpt>
      <trkpt lat="-7.782764" lon="110.387743">
        <ele>130.012422</ele>
        <time>2026-07-18T12:48:02+00:00</time>
      </trkpt>
      <trkpt lat="-7.782302" lon="110.387825">
        <ele>130.37529</ele>
        <time>2026-07-18T12:48:20+00:00</time>
      </trkpt>
      <trkpt lat="-7.782121" lon="110.387858">
        <ele>130.51757</ele>
        <time>2026-07-18T12:48:27+00:00</time>
      </trkpt>
      <trkpt lat="-7.781346" lon="110.3879">
        <ele>130.266354</ele>
        <time>2026-07-18T12:48:56+00:00</time>
      </trkpt>
      <trkpt lat="-7.781213" lon="110.38737">
        <ele>130.043055</ele>
        <time>2026-07-18T12:49:19+00:00</time>
      </trkpt>
      <trkpt lat="-7.781171" lon="110.387184">
        <ele>129.96514</ele>
        <time>2026-07-18T12:49:28+00:00</time>
      </trkpt>
      <trkpt lat="-7.781132" lon="110.38693">
        <ele>129.860163</ele>
        <time>2026-07-18T12:49:38+00:00</time>
      </trkpt>
      <trkpt lat="-7.781038" lon="110.386481">
        <ele>129.541479</ele>
        <time>2026-07-18T12:49:58+00:00</time>
      </trkpt>
      <trkpt lat="-7.781024" lon="110.386298">
        <ele>129.400137</ele>
        <time>2026-07-18T12:50:05+00:00</time>
      </trkpt>
      <trkpt lat="-7.781021" lon="110.386254">
        <ele>129.366174</ele>
        <time>2026-07-18T12:50:07+00:00</time>
      </trkpt>
      <trkpt lat="-7.781301" lon="110.386211">
        <ele>129.146047</ele>
        <time>2026-07-18T12:50:17+00:00</time>
      </trkpt>
      <trkpt lat="-7.781557" lon="110.386171">
        <ele>128.944707</ele>
        <time>2026-07-18T12:50:27+00:00</time>
      </trkpt>
      <trkpt lat="-7.781713" lon="110.386147">
        <ele>128.82206</ele>
        <time>2026-07-18T12:50:33+00:00</time>
      </trkpt>
      <trkpt lat="-7.781644" lon="110.385825">
        <ele>128.568365</ele>
        <time>2026-07-18T12:50:45+00:00</time>
      </trkpt>
      <trkpt lat="-7.78159" lon="110.385574">
        <ele>128.405133</ele>
        <time>2026-07-18T12:50:54+00:00</time>
      </trkpt>
      <trkpt lat="-7.781761" lon="110.385521">
        <ele>128.357725</ele>
        <time>2026-07-18T12:51:01+00:00</time>
      </trkpt>
      <trkpt lat="-7.781954" lon="110.385462">
        <ele>128.304281</ele>
        <time>2026-07-18T12:51:08+00:00</time>
      </trkpt>
      <trkpt lat="-7.782206" lon="110.385409">
        <ele>128.23606</ele>
        <time>2026-07-18T12:51:18+00:00</time>
      </trkpt>
      <trkpt lat="-7.782298" lon="110.385389">
        <ele>128.211119</ele>
        <time>2026-07-18T12:51:21+00:00</time>
      </trkpt>
      <trkpt lat="-7.782462" lon="110.385353">
        <ele>128.166639</ele>
        <time>2026-07-18T12:51:28+00:00</time>
      </trkpt>
      <trkpt lat="-7.78292" lon="110.385336">
        <ele>128.045175</ele>
        <time>2026-07-18T12:51:45+00:00</time>
      </trkpt>
      <trkpt lat="-7.783067" lon="110.38533">
        <ele>128.006185</ele>
        <time>2026-07-18T12:51:50+00:00</time>
      </trkpt>
      <trkpt lat="-7.783064" lon="110.385156">
        <ele>127.960489</ele>
        <time>2026-07-18T12:51:56+00:00</time>
      </trkpt>
      <trkpt lat="-7.783061" lon="110.384988">
        <ele>127.902987</ele>
        <time>2026-07-18T12:52:03+00:00</time>
      </trkpt>
      <trkpt lat="-7.783061" lon="110.384921">
        <ele>127.877537</ele>
        <time>2026-07-18T12:52:05+00:00</time>
      </trkpt>
      <trkpt lat="-7.783054" lon="110.38409">
        <ele>127.561873</ele>
        <time>2026-07-18T12:52:36+00:00</time>
      </trkpt>
      <trkpt lat="-7.783048" lon="110.383259">
        <ele>127.25287</ele>
        <time>2026-07-18T12:53:06+00:00</time>
      </trkpt>
      <trkpt lat="-7.783042" lon="110.382428">
        <ele>127.136279</ele>
        <time>2026-07-18T12:53:37+00:00</time>
      </trkpt>
      <trkpt lat="-7.783035" lon="110.381597">
        <ele>127.019686</ele>
        <time>2026-07-18T12:54:08+00:00</time>
      </trkpt>
      <trkpt lat="-7.783029" lon="110.380766">
        <ele>127.097929</ele>
        <time>2026-07-18T12:54:38+00:00</time>
      </trkpt>
      <trkpt lat="-7.78302" lon="110.37995">
        <ele>127.208802</ele>
        <time>2026-07-18T12:55:09+00:00</time>
      </trkpt>
      <trkpt lat="-7.783011" lon="110.379134">
        <ele>127.322246</ele>
        <time>2026-07-18T12:55:39+00:00</time>
      </trkpt>
      <trkpt lat="-7.783002" lon="110.378318">
        <ele>127.437135</ele>
        <time>2026-07-18T12:56:09+00:00</time>
      </trkpt>
      <trkpt lat="-7.783002" lon="110.378331">
        <ele>127.438965</ele>
        <time>2026-07-18T12:56:09+00:00</time>
      </trkpt>
      <trkpt lat="-7.782963" lon="110.378331">
        <ele>127.444507</ele>
        <time>2026-07-18T12:56:11+00:00</time>
      </trkpt>
      <trkpt lat="-7.782952" lon="110.378304">
        <ele>127.448617</ele>
        <time>2026-07-18T12:56:12+00:00</time>
      </trkpt>
      <trkpt lat="-7.782909" lon="110.378304">
        <ele>127.454727</ele>
        <time>2026-07-18T12:56:13+00:00</time>
      </trkpt>
      <trkpt lat="-7.782905" lon="110.377872">
        <ele>127.477848</ele>
        <time>2026-07-18T12:56:30+00:00</time>
      </trkpt>
      <trkpt lat="-7.782903" lon="110.377584">
        <ele>127.382488</ele>
        <time>2026-07-18T12:56:40+00:00</time>
      </trkpt>
      <trkpt lat="-7.7829" lon="110.377235">
        <ele>127.266929</ele>
        <time>2026-07-18T12:56:53+00:00</time>
      </trkpt>
      <trkpt lat="-7.782892" lon="110.376331">
        <ele>126.967601</ele>
        <time>2026-07-18T12:57:26+00:00</time>
      </trkpt>
      <trkpt lat="-7.782892" lon="110.376286">
        <ele>126.952702</ele>
        <time>2026-07-18T12:57:28+00:00</time>
      </trkpt>
      <trkpt lat="-7.782891" lon="110.37623">
        <ele>126.934157</ele>
        <time>2026-07-18T12:57:30+00:00</time>
      </trkpt>
      <trkpt lat="-7.782888" lon="110.375774">
        <ele>126.653561</ele>
        <time>2026-07-18T12:57:46+00:00</time>
      </trkpt>
      <trkpt lat="-7.782886" lon="110.375569">
        <ele>126.512403</ele>
        <time>2026-07-18T12:57:53+00:00</time>
      </trkpt>
      <trkpt lat="-7.782983" lon="110.375568">
        <ele>126.44499</ele>
        <time>2026-07-18T12:57:57+00:00</time>
      </trkpt>
      <trkpt lat="-7.782981" lon="110.375344">
        <ele>126.29075</ele>
        <time>2026-07-18T12:58:05+00:00</time>
      </trkpt>
      <trkpt lat="-7.782979" lon="110.375068">
        <ele>126.100707</ele>
        <time>2026-07-18T12:58:15+00:00</time>
      </trkpt>
      <trkpt lat="-7.782911" lon="110.375069">
        <ele>126.053446</ele>
        <time>2026-07-18T12:58:18+00:00</time>
      </trkpt>
      <trkpt lat="-7.782883" lon="110.375042">
        <ele>126.026534</ele>
        <time>2026-07-18T12:58:19+00:00</time>
      </trkpt>
      <trkpt lat="-7.782878" lon="110.375003">
        <ele>125.999457</ele>
        <time>2026-07-18T12:58:20+00:00</time>
      </trkpt>
      <trkpt lat="-7.782867" lon="110.374923">
        <ele>125.943845</ele>
        <time>2026-07-18T12:58:23+00:00</time>
      </trkpt>
      <trkpt lat="-7.782773" lon="110.374939">
        <ele>125.877598</ele>
        <time>2026-07-18T12:58:27+00:00</time>
      </trkpt>
      <trkpt lat="-7.781947" lon="110.375081">
        <ele>125.728377</ele>
        <time>2026-07-18T12:58:58+00:00</time>
      </trkpt>
      <trkpt lat="-7.781828" lon="110.375101">
        <ele>125.745967</ele>
        <time>2026-07-18T12:59:02+00:00</time>
      </trkpt>
      <trkpt lat="-7.781808" lon="110.374694">
        <ele>125.804835</ele>
        <time>2026-07-18T12:59:18+00:00</time>
      </trkpt>
      <trkpt lat="-7.781768" lon="110.373916">
        <ele>125.91338</ele>
        <time>2026-07-18T12:59:47+00:00</time>
      </trkpt>
      <trkpt lat="-7.78174" lon="110.373199">
        <ele>125.793456</ele>
        <time>2026-07-18T13:00:14+00:00</time>
      </trkpt>
      <trkpt lat="-7.781735" lon="110.373">
        <ele>125.760187</ele>
        <time>2026-07-18T13:00:21+00:00</time>
      </trkpt>
      <trkpt lat="-7.781738" lon="110.372598">
        <ele>125.692999</ele>
        <time>2026-07-18T13:00:36+00:00</time>
      </trkpt>
      <trkpt lat="-7.781738" lon="110.372562">
        <ele>125.686982</ele>
        <time>2026-07-18T13:00:37+00:00</time>
      </trkpt>
      <trkpt lat="-7.782147" lon="110.372474">
        <ele>125.616441</ele>
        <time>2026-07-18T13:00:52+00:00</time>
      </trkpt>
      <trkpt lat="-7.782205" lon="110.372462">
        <ele>125.604886</ele>
        <time>2026-07-18T13:00:54+00:00</time>
      </trkpt>
      <trkpt lat="-7.782391" lon="110.372422">
        <ele>125.563938</ele>
        <time>2026-07-18T13:01:01+00:00</time>
      </trkpt>
      <trkpt lat="-7.782593" lon="110.372377">
        <ele>125.519396</ele>
        <time>2026-07-18T13:01:09+00:00</time>
      </trkpt>
      <trkpt lat="-7.78263" lon="110.372368">
        <ele>125.511201</ele>
        <time>2026-07-18T13:01:10+00:00</time>
      </trkpt>
      <trkpt lat="-7.782659" lon="110.372362">
        <ele>125.504827</ele>
        <time>2026-07-18T13:01:11+00:00</time>
      </trkpt>
      <trkpt lat="-7.782794" lon="110.372379">
        <ele>125.475533</ele>
        <time>2026-07-18T13:01:16+00:00</time>
      </trkpt>
      <trkpt lat="-7.782878" lon="110.372431">
        <ele>125.454316</ele>
        <time>2026-07-18T13:01:20+00:00</time>
      </trkpt>
      <trkpt lat="-7.782888" lon="110.372452">
        <ele>125.449345</ele>
        <time>2026-07-18T13:01:21+00:00</time>
      </trkpt>
      <trkpt lat="-7.782965" lon="110.372613">
        <ele>125.411206</ele>
        <time>2026-07-18T13:01:28+00:00</time>
      </trkpt>
      <trkpt lat="-7.782968" lon="110.372688">
        <ele>125.395192</ele>
        <time>2026-07-18T13:01:30+00:00</time>
      </trkpt>
      <trkpt lat="-7.782969" lon="110.372855">
        <ele>125.359565</ele>
        <time>2026-07-18T13:01:36+00:00</time>
      </trkpt>
      <trkpt lat="-7.782971" lon="110.373341">
        <ele>125.255882</ele>
        <time>2026-07-18T13:01:54+00:00</time>
      </trkpt>
      <trkpt lat="-7.782973" lon="110.373828">
        <ele>125.210582</ele>
        <time>2026-07-18T13:02:12+00:00</time>
      </trkpt>
      <trkpt lat="-7.782975" lon="110.37429">
        <ele>125.191289</ele>
        <time>2026-07-18T13:02:29+00:00</time>
      </trkpt>
      <trkpt lat="-7.782977" lon="110.374752">
        <ele>125.171996</ele>
        <time>2026-07-18T13:02:46+00:00</time>
      </trkpt>
      <trkpt lat="-7.782978" lon="110.374828">
        <ele>125.168822</ele>
        <time>2026-07-18T13:02:49+00:00</time>
      </trkpt>
      <trkpt lat="-7.783038" lon="110.374826">
        <ele>125.166292</ele>
        <time>2026-07-18T13:02:52+00:00</time>
      </trkpt>
      <trkpt lat="-7.783086" lon="110.374851">
        <ele>125.164016</ele>
        <time>2026-07-18T13:02:54+00:00</time>
      </trkpt>
      <trkpt lat="-7.78309" lon="110.374884">
        <ele>125.162627</ele>
        <time>2026-07-18T13:02:55+00:00</time>
      </trkpt>
      <trkpt lat="-7.782978" lon="110.374903">
        <ele>125.157841</ele>
        <time>2026-07-18T13:02:59+00:00</time>
      </trkpt>
      <trkpt lat="-7.782907" lon="110.374916">
        <ele>125.154799</ele>
        <time>2026-07-18T13:03:02+00:00</time>
      </trkpt>
      <trkpt lat="-7.782867" lon="110.374923">
        <ele>125.153088</ele>
        <time>2026-07-18T13:03:03+00:00</time>
      </trkpt>
      <trkpt lat="-7.782773" lon="110.374939">
        <ele>125.149071</ele>
        <time>2026-07-18T13:03:07+00:00</time>
      </trkpt>
      <trkpt lat="-7.781947" lon="110.375081">
        <ele>125.456357</ele>
        <time>2026-07-18T13:03:39+00:00</time>
      </trkpt>
      <trkpt lat="-7.781828" lon="110.375101">
        <ele>125.500648</ele>
        <time>2026-07-18T13:03:43+00:00</time>
      </trkpt>
      <trkpt lat="-7.781808" lon="110.374694">
        <ele>125.648882</ele>
        <time>2026-07-18T13:03:58+00:00</time>
      </trkpt>
      <trkpt lat="-7.781768" lon="110.373916">
        <ele>125.75263</ele>
        <time>2026-07-18T13:04:28+00:00</time>
      </trkpt>
      <trkpt lat="-7.78174" lon="110.373199">
        <ele>125.632046</ele>
        <time>2026-07-18T13:04:54+00:00</time>
      </trkpt>
      <trkpt lat="-7.781735" lon="110.373">
        <ele>125.598594</ele>
        <time>2026-07-18T13:05:02+00:00</time>
      </trkpt>
      <trkpt lat="-7.781738" lon="110.372562">
        <ele>125.524987</ele>
        <time>2026-07-18T13:05:18+00:00</time>
      </trkpt>
      <trkpt lat="-7.782257" lon="110.372448">
        <ele>125.504326</ele>
        <time>2026-07-18T13:05:37+00:00</time>
      </trkpt>
      <trkpt lat="-7.782777" lon="110.372335">
        <ele>125.504326</ele>
        <time>2026-07-18T13:05:57+00:00</time>
      </trkpt>
      <trkpt lat="-7.782812" lon="110.372327">
        <ele>125.504326</ele>
        <time>2026-07-18T13:05:58+00:00</time>
      </trkpt>
      <trkpt lat="-7.782919" lon="110.372233">
        <ele>125.504326</ele>
        <time>2026-07-18T13:06:03+00:00</time>
      </trkpt>
      <trkpt lat="-7.782925" lon="110.372219">
        <ele>125.504326</ele>
        <time>2026-07-18T13:06:04+00:00</time>
      </trkpt>
      <trkpt lat="-7.782945" lon="110.372177">
        <ele>125.504326</ele>
        <time>2026-07-18T13:06:06+00:00</time>
      </trkpt>
      <trkpt lat="-7.782943" lon="110.372137">
        <ele>125.504326</ele>
        <time>2026-07-18T13:06:07+00:00</time>
      </trkpt>
      <trkpt lat="-7.782957" lon="110.372137">
        <ele>125.504326</ele>
        <time>2026-07-18T13:06:07+00:00</time>
      </trkpt>
      <trkpt lat="-7.782975" lon="110.372077">
        <ele>125.504326</ele>
        <time>2026-07-18T13:06:10+00:00</time>
      </trkpt>
      <trkpt lat="-7.782992" lon="110.372019">
        <ele>125.504326</ele>
        <time>2026-07-18T13:06:12+00:00</time>
      </trkpt>
      <trkpt lat="-7.78299" lon="110.371524">
        <ele>125.504326</ele>
        <time>2026-07-18T13:06:30+00:00</time>
      </trkpt>
      <trkpt lat="-7.78299" lon="110.371471">
        <ele>125.504326</ele>
        <time>2026-07-18T13:06:32+00:00</time>
      </trkpt>
      <trkpt lat="-7.783069" lon="110.37146">
        <ele>125.504326</ele>
        <time>2026-07-18T13:06:35+00:00</time>
      </trkpt>
    </trkseg>
  </trk>
</gpx>
