<?xml version="1.0" encoding="UTF-8" standalone="yes"?>
<gpx version="1.1" creator="https://onthegomap.com" xmlns="http://www.topografix.com/GPX/1/1">
  <metadata>
    <name>10.6km route</name>
    <link href="https://onthegomap.com">
      <text>On The Go Map</text>
    </link>
    <time>2026-08-25T14:44:37.443Z</time>
    <copyright author="On The Go Map, OpenStreetMap Contributors">
      <year>2026</year>
    </copyright>
  </metadata>
  <trk>
    <name>10.6km route</name>
    <trkseg>
      <trkpt lat="-7.78551" lon="110.36675"/>
      <trkpt lat="-7.78592" lon="110.3667"/>
      <trkpt lat="-7.78614" lon="110.36667"/>
      <trkpt lat="-7.78621" lon="110.36666"/>
      <trkpt lat="-7.78649" lon="110.36663"/>
      <trkpt lat="-7.78678" lon="110.36659"/>
      <trkpt lat="-7.78707" lon="110.36655"/>
      <trkpt lat="-7.78707" lon="110.36656"/>
      <trkpt lat="-7.78707" lon="110.36655"/>
      <trkpt lat="-7.78721" lon="110.36654"/>
      <trkpt lat="-7.78734" lon="110.36652"/>
      <trkpt lat="-7.78769" lon="110.36648"/>
      <trkpt lat="-7.78794" lon="110.36644"/>
      <trkpt lat="-7.78804" lon="110.36643"/>
      <trkpt lat="-7.78812" lon="110.36642"/>
      <trkpt lat="-7.78832" lon="110.3664"/>
      <trkpt lat="-7.78847" lon="110.36638"/>
      <trkpt lat="-7.78868" lon="110.36635"/>
      <trkpt lat="-7.78882" lon="110.36634"/>
      <trkpt lat="-7.78898" lon="110.36632"/>
      <trkpt lat="-7.78908" lon="110.3663"/>
      <trkpt lat="-7.78909" lon="110.36631"/>
      <trkpt lat="-7.78908" lon="110.3663"/>
      <trkpt lat="-7.78941" lon="110.36626"/>
      <trkpt lat="-7.7895" lon="110.36625"/>
      <trkpt lat="-7.78952" lon="110.36625"/>
      <trkpt lat="-7.78956" lon="110.36624"/>
      <trkpt lat="-7.78986" lon="110.3662"/>
      <trkpt lat="-7.78988" lon="110.3662"/>
      <trkpt lat="-7.78996" lon="110.36619"/>
      <trkpt lat="-7.79014" lon="110.36617"/>
      <trkpt lat="-7.79031" lon="110.36614"/>
      <trkpt lat="-7.79095" lon="110.36606"/>
      <trkpt lat="-7.79115" lon="110.36604"/>
      <trkpt lat="-7.79133" lon="110.36602"/>
      <trkpt lat="-7.79165" lon="110.36598"/>
      <trkpt lat="-7.79175" lon="110.36596"/>
      <trkpt lat="-7.79177" lon="110.36596"/>
      <trkpt lat="-7.79204" lon="110.36593"/>
      <trkpt lat="-7.79234" lon="110.36589"/>
      <trkpt lat="-7.79264" lon="110.36585"/>
      <trkpt lat="-7.79264" lon="110.36586"/>
      <trkpt lat="-7.79265" lon="110.36593"/>
      <trkpt lat="-7.79268" lon="110.36634"/>
      <trkpt lat="-7.79268" lon="110.3664"/>
      <trkpt lat="-7.79269" lon="110.3665"/>
      <trkpt lat="-7.79277" lon="110.36757"/>
      <trkpt lat="-7.79277" lon="110.36759"/>
      <trkpt lat="-7.79303" lon="110.36761"/>
      <trkpt lat="-7.79311" lon="110.36762"/>
      <trkpt lat="-7.79348" lon="110.36765"/>
      <trkpt lat="-7.79369" lon="110.3677"/>
      <trkpt lat="-7.79386" lon="110.36779"/>
      <trkpt lat="-7.7939" lon="110.3678"/>
      <trkpt lat="-7.79399" lon="110.36788"/>
      <trkpt lat="-7.79418" lon="110.36807"/>
      <trkpt lat="-7.79426" lon="110.36815"/>
      <trkpt lat="-7.79432" lon="110.36821"/>
      <trkpt lat="-7.79465" lon="110.36879"/>
      <trkpt lat="-7.79462" lon="110.36885"/>
      <trkpt lat="-7.7946" lon="110.36909"/>
      <trkpt lat="-7.79456" lon="110.36915"/>
      <trkpt lat="-7.79421" lon="110.36961"/>
      <trkpt lat="-7.79419" lon="110.36963"/>
      <trkpt lat="-7.79401" lon="110.36987"/>
      <trkpt lat="-7.79377" lon="110.3702"/>
      <trkpt lat="-7.79375" lon="110.37022"/>
      <trkpt lat="-7.79364" lon="110.37038"/>
      <trkpt lat="-7.79345" lon="110.37073"/>
      <trkpt lat="-7.79343" lon="110.37088"/>
      <trkpt lat="-7.79342" lon="110.37118"/>
      <trkpt lat="-7.7934" lon="110.37149"/>
      <trkpt lat="-7.7934" lon="110.37155"/>
      <trkpt lat="-7.7934" lon="110.37158"/>
      <trkpt lat="-7.79343" lon="110.37233"/>
      <trkpt lat="-7.79346" lon="110.37312"/>
      <trkpt lat="-7.79346" lon="110.37314"/>
      <trkpt lat="-7.79215" lon="110.37361"/>
      <trkpt lat="-7.79211" lon="110.37362"/>
      <trkpt lat="-7.79194" lon="110.37368"/>
      <trkpt lat="-7.79141" lon="110.37387"/>
      <trkpt lat="-7.79098" lon="110.37401"/>
      <trkpt lat="-7.79071" lon="110.37406"/>
      <trkpt lat="-7.79061" lon="110.37406"/>
      <trkpt lat="-7.79048" lon="110.37419"/>
      <trkpt lat="-7.79044" lon="110.37422"/>
      <trkpt lat="-7.79045" lon="110.37453"/>
      <trkpt lat="-7.79041" lon="110.375"/>
      <trkpt lat="-7.79029" lon="110.37681"/>
      <trkpt lat="-7.79028" lon="110.37692"/>
      <trkpt lat="-7.79026" lon="110.3771"/>
      <trkpt lat="-7.79025" lon="110.37733"/>
      <trkpt lat="-7.79023" lon="110.3776"/>
      <trkpt lat="-7.79022" lon="110.37791"/>
      <trkpt lat="-7.79023" lon="110.37798"/>
      <trkpt lat="-7.79022" lon="110.37791"/>
      <trkpt lat="-7.79023" lon="110.3776"/>
      <trkpt lat="-7.79025" lon="110.37733"/>
      <trkpt lat="-7.79026" lon="110.3771"/>
      <trkpt lat="-7.79028" lon="110.37692"/>
      <trkpt lat="-7.79029" lon="110.37681"/>
      <trkpt lat="-7.79045" lon="110.37453"/>
      <trkpt lat="-7.79045" lon="110.37442"/>
      <trkpt lat="-7.79044" lon="110.37422"/>
      <trkpt lat="-7.79061" lon="110.37406"/>
      <trkpt lat="-7.79071" lon="110.37406"/>
      <trkpt lat="-7.79098" lon="110.37401"/>
      <trkpt lat="-7.79141" lon="110.37387"/>
      <trkpt lat="-7.79182" lon="110.37373"/>
      <trkpt lat="-7.79194" lon="110.37368"/>
      <trkpt lat="-7.79211" lon="110.37362"/>
      <trkpt lat="-7.79346" lon="110.37314"/>
      <trkpt lat="-7.79368" lon="110.37306"/>
      <trkpt lat="-7.79415" lon="110.37289"/>
      <trkpt lat="-7.79418" lon="110.37288"/>
      <trkpt lat="-7.79478" lon="110.37272"/>
      <trkpt lat="-7.79486" lon="110.3727"/>
      <trkpt lat="-7.79554" lon="110.37269"/>
      <trkpt lat="-7.79621" lon="110.37268"/>
      <trkpt lat="-7.79659" lon="110.37266"/>
      <trkpt lat="-7.79684" lon="110.37265"/>
      <trkpt lat="-7.7974" lon="110.37262"/>
      <trkpt lat="-7.79756" lon="110.37263"/>
      <trkpt lat="-7.79763" lon="110.37265"/>
      <trkpt lat="-7.79768" lon="110.37267"/>
      <trkpt lat="-7.79774" lon="110.37272"/>
      <trkpt lat="-7.79782" lon="110.37278"/>
      <trkpt lat="-7.79786" lon="110.37282"/>
      <trkpt lat="-7.79796" lon="110.37288"/>
      <trkpt lat="-7.79805" lon="110.37293"/>
      <trkpt lat="-7.7983" lon="110.37302"/>
      <trkpt lat="-7.79855" lon="110.37308"/>
      <trkpt lat="-7.79872" lon="110.37311"/>
      <trkpt lat="-7.79949" lon="110.37313"/>
      <trkpt lat="-7.79969" lon="110.37313"/>
      <trkpt lat="-7.80016" lon="110.37314"/>
      <trkpt lat="-7.80026" lon="110.37313"/>
      <trkpt lat="-7.80083" lon="110.37313"/>
      <trkpt lat="-7.80136" lon="110.37311"/>
      <trkpt lat="-7.80159" lon="110.37309"/>
      <trkpt lat="-7.80158" lon="110.37272"/>
      <trkpt lat="-7.80158" lon="110.37262"/>
      <trkpt lat="-7.80158" lon="110.37252"/>
      <trkpt lat="-7.80157" lon="110.37178"/>
      <trkpt lat="-7.80156" lon="110.37142"/>
      <trkpt lat="-7.80156" lon="110.37141"/>
      <trkpt lat="-7.80156" lon="110.37106"/>
      <trkpt lat="-7.80155" lon="110.37094"/>
      <trkpt lat="-7.80153" lon="110.3709"/>
      <trkpt lat="-7.80153" lon="110.37088"/>
      <trkpt lat="-7.80153" lon="110.37084"/>
      <trkpt lat="-7.80153" lon="110.3707"/>
      <trkpt lat="-7.80152" lon="110.37028"/>
      <trkpt lat="-7.80151" lon="110.36934"/>
      <trkpt lat="-7.80151" lon="110.36927"/>
      <trkpt lat="-7.80152" lon="110.36928"/>
      <trkpt lat="-7.80151" lon="110.36927"/>
      <trkpt lat="-7.8008" lon="110.36929"/>
      <trkpt lat="-7.8005" lon="110.3693"/>
      <trkpt lat="-7.80038" lon="110.36931"/>
      <trkpt lat="-7.80016" lon="110.36931"/>
      <trkpt lat="-7.79988" lon="110.36932"/>
      <trkpt lat="-7.79958" lon="110.36933"/>
      <trkpt lat="-7.79937" lon="110.36934"/>
      <trkpt lat="-7.79885" lon="110.36936"/>
      <trkpt lat="-7.79884" lon="110.36936"/>
      <trkpt lat="-7.79831" lon="110.36937"/>
      <trkpt lat="-7.79793" lon="110.36935"/>
      <trkpt lat="-7.79771" lon="110.36935"/>
      <trkpt lat="-7.79761" lon="110.36935"/>
      <trkpt lat="-7.79734" lon="110.36934"/>
      <trkpt lat="-7.79714" lon="110.36933"/>
      <trkpt lat="-7.79708" lon="110.36932"/>
      <trkpt lat="-7.797" lon="110.3693"/>
      <trkpt lat="-7.79692" lon="110.36927"/>
      <trkpt lat="-7.79683" lon="110.36921"/>
      <trkpt lat="-7.7968" lon="110.36919"/>
      <trkpt lat="-7.79667" lon="110.3691"/>
      <trkpt lat="-7.79666" lon="110.369"/>
      <trkpt lat="-7.79661" lon="110.36839"/>
      <trkpt lat="-7.7966" lon="110.36824"/>
      <trkpt lat="-7.79656" lon="110.36776"/>
      <trkpt lat="-7.79655" lon="110.36769"/>
      <trkpt lat="-7.79654" lon="110.3675"/>
      <trkpt lat="-7.79648" lon="110.36685"/>
      <trkpt lat="-7.79637" lon="110.36546"/>
      <trkpt lat="-7.79637" lon="110.36544"/>
      <trkpt lat="-7.79636" lon="110.36538"/>
      <trkpt lat="-7.79744" lon="110.36526"/>
      <trkpt lat="-7.79756" lon="110.36524"/>
      <trkpt lat="-7.79835" lon="110.36514"/>
      <trkpt lat="-7.79883" lon="110.36507"/>
      <trkpt lat="-7.79907" lon="110.36504"/>
      <trkpt lat="-7.79907" lon="110.36505"/>
      <trkpt lat="-7.79907" lon="110.36504"/>
      <trkpt lat="-7.79935" lon="110.36501"/>
      <trkpt lat="-7.79949" lon="110.36499"/>
      <trkpt lat="-7.79967" lon="110.36496"/>
      <trkpt lat="-7.8002" lon="110.3649"/>
      <trkpt lat="-7.80024" lon="110.36489"/>
      <trkpt lat="-7.80076" lon="110.36483"/>
      <trkpt lat="-7.80088" lon="110.36481"/>
      <trkpt lat="-7.80108" lon="110.36479"/>
      <trkpt lat="-7.80137" lon="110.36475"/>
      <trkpt lat="-7.80137" lon="110.36457"/>
      <trkpt lat="-7.80137" lon="110.36445"/>
      <trkpt lat="-7.80133" lon="110.36349"/>
      <trkpt lat="-7.80132" lon="110.36333"/>
      <trkpt lat="-7.8013" lon="110.36251"/>
      <trkpt lat="-7.80129" lon="110.36242"/>
      <trkpt lat="-7.80128" lon="110.36216"/>
      <trkpt lat="-7.80128" lon="110.36205"/>
      <trkpt lat="-7.80128" lon="110.36203"/>
      <trkpt lat="-7.8011" lon="110.36203"/>
      <trkpt lat="-7.80097" lon="110.36204"/>
      <trkpt lat="-7.80048" lon="110.36205"/>
      <trkpt lat="-7.80003" lon="110.36207"/>
      <trkpt lat="-7.79952" lon="110.36209"/>
      <trkpt lat="-7.79917" lon="110.3621"/>
      <trkpt lat="-7.79845" lon="110.36214"/>
      <trkpt lat="-7.79784" lon="110.36214"/>
      <trkpt lat="-7.79764" lon="110.36214"/>
      <trkpt lat="-7.79717" lon="110.36215"/>
      <trkpt lat="-7.79682" lon="110.36217"/>
      <trkpt lat="-7.79671" lon="110.36217"/>
      <trkpt lat="-7.79649" lon="110.36217"/>
      <trkpt lat="-7.79626" lon="110.36214"/>
      <trkpt lat="-7.79622" lon="110.36213"/>
      <trkpt lat="-7.79616" lon="110.3621"/>
      <trkpt lat="-7.7961" lon="110.36205"/>
      <trkpt lat="-7.79607" lon="110.36201"/>
      <trkpt lat="-7.79599" lon="110.36189"/>
      <trkpt lat="-7.79592" lon="110.36177"/>
      <trkpt lat="-7.7957" lon="110.36148"/>
      <trkpt lat="-7.79568" lon="110.36146"/>
      <trkpt lat="-7.79559" lon="110.36135"/>
      <trkpt lat="-7.79547" lon="110.36126"/>
      <trkpt lat="-7.79543" lon="110.36124"/>
      <trkpt lat="-7.79538" lon="110.36123"/>
      <trkpt lat="-7.79485" lon="110.36126"/>
      <trkpt lat="-7.79463" lon="110.36127"/>
      <trkpt lat="-7.79427" lon="110.36128"/>
      <trkpt lat="-7.79426" lon="110.36128"/>
      <trkpt lat="-7.79405" lon="110.36129"/>
      <trkpt lat="-7.7937" lon="110.3613"/>
      <trkpt lat="-7.79351" lon="110.36131"/>
      <trkpt lat="-7.79331" lon="110.36136"/>
      <trkpt lat="-7.79286" lon="110.36145"/>
      <trkpt lat="-7.79161" lon="110.3617"/>
      <trkpt lat="-7.79156" lon="110.36171"/>
      <trkpt lat="-7.79153" lon="110.36116"/>
      <trkpt lat="-7.79152" lon="110.36086"/>
      <trkpt lat="-7.7915" lon="110.36047"/>
      <trkpt lat="-7.79149" lon="110.36037"/>
      <trkpt lat="-7.79145" lon="110.35961"/>
      <trkpt lat="-7.79143" lon="110.35927"/>
      <trkpt lat="-7.79142" lon="110.35904"/>
      <trkpt lat="-7.79141" lon="110.35895"/>
      <trkpt lat="-7.79141" lon="110.35894"/>
      <trkpt lat="-7.7914" lon="110.35878"/>
      <trkpt lat="-7.79137" lon="110.35833"/>
      <trkpt lat="-7.79136" lon="110.35795"/>
      <trkpt lat="-7.79135" lon="110.35786"/>
      <trkpt lat="-7.79133" lon="110.35747"/>
      <trkpt lat="-7.79133" lon="110.35736"/>
      <trkpt lat="-7.79136" lon="110.35734"/>
      <trkpt lat="-7.79133" lon="110.35736"/>
      <trkpt lat="-7.79118" lon="110.3574"/>
      <trkpt lat="-7.79111" lon="110.35741"/>
      <trkpt lat="-7.79034" lon="110.35743"/>
      <trkpt lat="-7.78943" lon="110.3575"/>
      <trkpt lat="-7.78935" lon="110.35748"/>
      <trkpt lat="-7.78888" lon="110.35749"/>
      <trkpt lat="-7.78872" lon="110.35749"/>
      <trkpt lat="-7.78869" lon="110.35749"/>
      <trkpt lat="-7.78829" lon="110.35751"/>
      <trkpt lat="-7.78827" lon="110.35751"/>
      <trkpt lat="-7.78821" lon="110.35754"/>
      <trkpt lat="-7.78818" lon="110.35758"/>
      <trkpt lat="-7.78816" lon="110.35764"/>
      <trkpt lat="-7.78816" lon="110.35767"/>
      <trkpt lat="-7.78798" lon="110.35835"/>
      <trkpt lat="-7.78787" lon="110.3587"/>
      <trkpt lat="-7.78787" lon="110.35871"/>
      <trkpt lat="-7.78782" lon="110.35881"/>
      <trkpt lat="-7.78772" lon="110.35898"/>
      <trkpt lat="-7.78757" lon="110.35917"/>
      <trkpt lat="-7.78749" lon="110.35927"/>
      <trkpt lat="-7.78745" lon="110.35931"/>
      <trkpt lat="-7.78751" lon="110.35931"/>
      <trkpt lat="-7.78757" lon="110.35932"/>
      <trkpt lat="-7.78762" lon="110.35935"/>
      <trkpt lat="-7.78766" lon="110.35939"/>
      <trkpt lat="-7.78768" lon="110.35945"/>
      <trkpt lat="-7.78769" lon="110.35949"/>
      <trkpt lat="-7.78768" lon="110.35954"/>
      <trkpt lat="-7.78766" lon="110.35958"/>
      <trkpt lat="-7.78763" lon="110.35963"/>
      <trkpt lat="-7.78761" lon="110.35964"/>
      <trkpt lat="-7.78763" lon="110.35963"/>
      <trkpt lat="-7.78766" lon="110.35958"/>
      <trkpt lat="-7.78773" lon="110.35974"/>
      <trkpt lat="-7.78774" lon="110.35981"/>
      <trkpt lat="-7.78805" lon="110.36116"/>
      <trkpt lat="-7.78808" lon="110.36151"/>
      <trkpt lat="-7.78808" lon="110.36153"/>
      <trkpt lat="-7.78817" lon="110.36244"/>
      <trkpt lat="-7.78778" lon="110.36252"/>
      <trkpt lat="-7.78769" lon="110.36254"/>
      <trkpt lat="-7.78719" lon="110.36265"/>
      <trkpt lat="-7.78712" lon="110.36204"/>
      <trkpt lat="-7.78706" lon="110.36165"/>
      <trkpt lat="-7.78706" lon="110.36162"/>
      <trkpt lat="-7.78692" lon="110.36059"/>
      <trkpt lat="-7.78689" lon="110.36042"/>
      <trkpt lat="-7.78681" lon="110.36001"/>
      <trkpt lat="-7.78681" lon="110.36"/>
      <trkpt lat="-7.78681" lon="110.36001"/>
      <trkpt lat="-7.78679" lon="110.35995"/>
      <trkpt lat="-7.78715" lon="110.35974"/>
      <trkpt lat="-7.78723" lon="110.35972"/>
      <trkpt lat="-7.78752" lon="110.35968"/>
      <trkpt lat="-7.78758" lon="110.35966"/>
      <trkpt lat="-7.78752" lon="110.35968"/>
      <trkpt lat="-7.78723" lon="110.35972"/>
      <trkpt lat="-7.78715" lon="110.35974"/>
      <trkpt lat="-7.78679" lon="110.35995"/>
      <trkpt lat="-7.78677" lon="110.35996"/>
      <trkpt lat="-7.78671" lon="110.36"/>
      <trkpt lat="-7.78648" lon="110.36014"/>
      <trkpt lat="-7.78614" lon="110.36033"/>
      <trkpt lat="-7.78574" lon="110.36053"/>
      <trkpt lat="-7.78542" lon="110.3607"/>
      <trkpt lat="-7.78544" lon="110.36074"/>
      <trkpt lat="-7.78544" lon="110.36075"/>
      <trkpt lat="-7.78545" lon="110.36081"/>
      <trkpt lat="-7.78555" lon="110.36137"/>
      <trkpt lat="-7.78562" lon="110.36178"/>
      <trkpt lat="-7.78564" lon="110.3619"/>
      <trkpt lat="-7.78568" lon="110.36216"/>
      <trkpt lat="-7.78569" lon="110.36223"/>
      <trkpt lat="-7.78574" lon="110.36257"/>
      <trkpt lat="-7.7858" lon="110.36286"/>
      <trkpt lat="-7.78581" lon="110.36294"/>
      <trkpt lat="-7.78561" lon="110.36298"/>
      <trkpt lat="-7.78529" lon="110.36305"/>
      <trkpt lat="-7.78504" lon="110.36312"/>
      <trkpt lat="-7.78505" lon="110.36315"/>
      <trkpt lat="-7.7851" lon="110.36361"/>
      <trkpt lat="-7.78512" lon="110.36377"/>
      <trkpt lat="-7.78518" lon="110.3642"/>
      <trkpt lat="-7.78519" lon="110.36428"/>
      <trkpt lat="-7.78521" lon="110.36444"/>
      <trkpt lat="-7.78525" lon="110.36483"/>
      <trkpt lat="-7.7853" lon="110.36519"/>
      <trkpt lat="-7.78538" lon="110.36587"/>
      <trkpt lat="-7.7854" lon="110.36606"/>
      <trkpt lat="-7.78547" lon="110.36664"/>
      <trkpt lat="-7.78548" lon="110.36668"/>
      <trkpt lat="-7.78548" lon="110.36669"/>
    </trkseg>
  </trk>
</gpx>